NORAD_CAT_ID,OBJECT_NAME,OBJECT_TYPE,EPOCH,MEAN_MOTION,ECCENTRICITY,INCLINATION,RA_OF_ASC_NODE,ARG_OF_PERICENTER,MEAN_ANOMALY,BSTAR,MEAN_MOTION_DOT,MEAN_MOTION_DDOT,TLE_LINE0,TLE_LINE1,TLE_LINE2,SEMIMAJOR_AXIS,PERIOD,APOGEE,PERIGEE,DECAYED
53790.0,STARLINK-4734,PAYLOAD,2024-02-14 10:51:18,15.08857099,0.0001468,53.2162,59.9027,89.0598,271.0562,0.00010418,1.371e-05,0.0,0 STARLINK-4734,1 53790U 22111T   24045.45230095  .00001371  00000-0  10418-3 0  9993,2 53790  53.2162  59.9027 0001468  89.0598 271.0562 15.08857099 79028,6917.828,95.436,540.709,538.678,0.0
53790.0,STARLINK-4734,PAYLOAD,2024-02-15 04:20:35,15.08829283,0.000155,53.2179,56.6319,100.4898,259.6269,-8.8024e-06,-4.28e-06,0.0,0 STARLINK-4734,1 53790U 22111T   24046.18096541 -.00000428  00000-0 -88024-5 0  9994,2 53790  53.2179  56.6319 0001550 100.4898 259.6269 15.08829283 79139,6917.913,95.438,540.85,538.706,0.0
53790.0,STARLINK-4734,PAYLOAD,2024-02-15 07:31:21,15.08834417,0.0001531,53.2178,56.0378,98.5464,261.5702,3.7741e-05,3.13e-06,0.0,0 STARLINK-4734,1 53790U 22111T   24046.31344190  .00000313  00000-0  37741-4 0  9995,2 53790  53.2178  56.0378 0001531  98.5464 261.5702 15.08834417 79962,6917.897,95.438,540.822,538.703,0.0
53790.0,STARLINK-4734,PAYLOAD,2024-02-15 17:03:40,15.08834261,0.0001534,53.2177,54.254,98.254,261.8627,3.657e-05,2.94e-06,0.0,0 STARLINK-4734,1 53790U 22111T   24046.71088412  .00000294  00000-0  36570-4 0  9998,2 53790  53.2177  54.2540 0001534  98.2540 261.8627 15.08834261 80022,6917.898,95.438,540.824,538.702,0.0
53790.0,STARLINK-4734,PAYLOAD,2024-02-16 04:11:22,15.08840509,0.0001583,53.218,52.1722,96.3449,263.7723,-3.5534e-05,-8.54e-06,0.0,0 STARLINK-4734,1 53790U 22111T   24047.17456494 -.00000854  00000-0 -35534-4 0  9991,2 53790  53.2180  52.1722 0001583  96.3449 263.7723 15.08840509 79282,6917.879,95.438,540.839,538.649,0.0
53790.0,STARLINK-4734,PAYLOAD,2024-02-16 10:32:54,15.08843996,0.0001654,53.2178,50.9828,97.983,262.135,5.6453e-05,6.11e-06,0.0,0 STARLINK-4734,1 53790U 22111T   24047.43951956  .00000611  00000-0  56453-4 0  9995,2 53790  53.2178  50.9828 0001654  97.9830 262.1350 15.08843996 80130,6917.868,95.437,540.877,538.589,0.0
53790.0,STARLINK-4734,PAYLOAD,2024-02-17 04:02:09,15.08835112,0.0001679,53.219,47.7117,99.666,260.4522,0.00013201,1.813e-05,0.0,0 STARLINK-4734,1 53790U 22111T   24048.16816764  .00001813  00000-0  13201-3 0  9991,2 53790  53.2190  47.7117 0001679  99.6660 260.4522 15.08835112 79430,6917.895,95.438,540.922,538.599,0.0
53790.0,STARLINK-4734,PAYLOAD,2024-02-17 08:48:18,15.08840209,0.0001773,53.219,46.8188,96.9808,263.1386,0.00018582,2.671e-05,0.0,0 STARLINK-4734,1 53790U 22111T   24048.36688570  .00002671  00000-0  18582-3 0  9995,2 53790  53.2190  46.8188 0001773  96.9808 263.1386 15.08840209 80272,6917.88,95.438,540.971,538.518,0.0
53790.0,STARLINK-4734,PAYLOAD,2024-02-17 16:45:14,15.08843228,0.0001806,53.2188,45.3322,89.9371,270.1828,0.00012071,1.634e-05,0.0,0 STARLINK-4734,1 53790U 22111T   24048.69808458  .00001634  00000-0  12071-3 0  9995,2 53790  53.2188  45.3322 0001806  89.9371 270.1828 15.08843228 80326,6917.871,95.437,540.985,538.486,0.0
53790.0,STARLINK-4734,PAYLOAD,2024-02-18 08:39:05,15.08844925,0.0001794,53.2184,42.357,86.6891,273.4307,0.0001473,2.057e-05,0.0,0 STARLINK-4734,1 53790U 22111T   24049.36048471  .00002057  00000-0  14730-3 0  9995,2 53790  53.2184  42.3570 0001794  86.6891 273.4307 15.08844925 79614,6917.865,95.437,540.971,538.489,0.0
53790.0,STARLINK-4734,PAYLOAD,2024-02-18 16:36:01,15.0884652,0.0001859,53.2191,40.8726,88.9692,271.1513,0.00010861,1.441e-05,0.0,0 STARLINK-4734,1 53790U 22111T   24049.69168365  .00001441  00000-0  10861-3 0  9993,2 53790  53.2191  40.8726 0001859  88.9692 271.1513 15.08846520 80477,6917.86,95.437,541.011,538.439,0.0
53790.0,STARLINK-4734,PAYLOAD,2024-02-19 08:29:52,15.08851108,0.0001512,53.2181,37.8949,89.4621,270.6544,0.00015136,2.122e-05,0.0,0 STARLINK-4734,1 53790U 22111T   24050.35407795  .00002122  00000-0  15136-3 0  9998,2 53790  53.2181  37.8949 0001512  89.4621 270.6544 15.08851108 80570,6917.846,95.437,540.757,538.665,0.0
53790.0,STARLINK-4734,PAYLOAD,2024-02-19 16:26:48,15.0884053,0.0001585,53.2185,36.4098,86.265,273.8524,-9.3366e-06,-4.37e-06,0.0,0 STARLINK-4734,1 53790U 22111T   24050.68528435 -.00000437  00000-0 -93366-5 0  9991,2 53790  53.2185  36.4098 0001585  86.2650 273.8524 15.08840530 79816,6917.879,95.438,540.84,538.647,0.0
53790.0,STARLINK-4734,PAYLOAD,2024-02-20 05:09:53,15.0883786,0.0001583,53.2185,34.0276,104.5924,255.5244,-9.4353e-05,-1.789e-05,0.0,0 STARLINK-4734,1 53790U 22111T   24051.21520658 -.00001789  00000-0 -94353-4 0  9997,2 53790  53.2185  34.0276 0001583 104.5924 255.5244 15.08837860 80702,6917.887,95.438,540.847,538.657,0.0
53790.0,STARLINK-4734,PAYLOAD,2024-02-20 22:39:08,15.08840575,0.0001421,53.2179,30.7602,91.5099,268.6056,0.00014416,2.007e-05,0.0,0 STARLINK-4734,1 53790U 22111T   24051.94384775  .00002007  00000-0  14416-3 0  9998,2 53790  53.2179  30.7602 0001421  91.5099 268.6056 15.08840575 80815,6917.879,95.438,540.727,538.761,0.0
53790.0,STARLINK-4734,PAYLOAD,2024-02-21 03:25:17,15.08849101,0.0001514,53.2176,29.8698,86.9904,273.1262,0.00024695,3.645e-05,0.0,0 STARLINK-4734,1 53790U 22111T   24052.14256413  .00003645  00000-0  24695-3 0  9997,2 53790  53.2176  29.8698 0001514  86.9904 273.1262 15.08849101 80030,6917.853,95.437,540.765,538.67,0.0
53790.0,STARLINK-4734,PAYLOAD,2024-02-21 05:00:40,15.08853816,0.0001549,53.218,29.5695,96.445,263.6719,0.000221,3.232e-05,0.0,0 STARLINK-4734,1 53790U 22111T   24052.20880111  .00003232  00000-0  22100-3 0  9993,2 53790  53.2180  29.5695 0001549  96.4450 263.6719 15.08853816 80858,6917.838,95.437,540.775,538.632,0.0
53790.0,STARLINK-4734,PAYLOAD,2024-02-22 03:16:04,15.0884401,0.0001501,53.2176,25.4094,106.7024,253.4133,0.00022289,3.261e-05,0.0,0 STARLINK-4734,1 53790U 22111T   24053.13616794  .00003261  00000-0  22289-3 0  9990,2 53790  53.2176  25.4094 0001501 106.7024 253.4133 15.08844010 80180,6917.868,95.437,540.772,538.695,0.0
53790.0,STARLINK-4734,PAYLOAD,2024-02-22 08:02:14,15.08844368,0.0001521,53.2185,24.5152,86.493,273.6236,0.00018953,2.73e-05,0.0,0 STARLINK-4734,1 53790U 22111T   24053.33488832  .00002730  00000-0  18953-3 0  9995,2 53790  53.2185  24.5152 0001521  86.4930 273.6236 15.08844368 81025,6917.867,95.437,540.784,538.68,0.0
53790.0,STARLINK-4734,PAYLOAD,2024-02-23 03:06:51,15.0884209,0.0001429,53.2185,20.9452,92.469,267.6465,0.00011033,1.468e-05,0.0,0 STARLINK-4734,1 53790U 22111T   24054.12976821  .00001468  00000-0  11033-3 0  9992,2 53790  53.2185  20.9452 0001429  92.4690 267.6465 15.08842090 80335,6917.874,95.437,540.728,538.75,0.0
53790.0,STARLINK-4734,PAYLOAD,2024-02-23 14:14:33,15.0884062,0.0001521,53.219,18.8635,90.8009,269.3157,8.5586e-05,1.074e-05,0.0,0 STARLINK-4734,1 53790U 22111T   24054.59344758  .00001074  00000-0  85586-4 0  9999,2 53790  53.2190  18.8635 0001521  90.8009 269.3157 15.08840620 81211,6917.878,95.438,540.796,538.691,0.0
53790.0,STARLINK-4734,PAYLOAD,2024-02-23 20:36:06,15.08839192,0.0001503,53.2192,17.6774,103.6045,256.5115,5.8477e-05,6.43e-06,0.0,0 STARLINK-4734,1 53790U 22111T   24054.85841016  .00000643  00000-0  58477-4 0  9997,2 53790  53.2192  17.6774 0001503 103.6045 256.5115 15.08839192 81255,6917.883,95.438,540.788,538.708,0.0
53790.0,STARLINK-4734,PAYLOAD,2024-02-24 04:33:02,15.08840062,0.0001672,53.2194,16.1915,117.4367,242.6795,5.4411e-05,5.78e-06,0.0,0 STARLINK-4734,1 53790U 22111T   24055.18960942  .00000578  00000-0  54411-4 0  9995,2 53790  53.2194  16.1915 0001672 117.4367 242.6795 15.08840062 80498,6917.88,95.438,540.902,538.589,0.0
53790.0,STARLINK-4734,PAYLOAD,2024-02-24 14:05:21,15.08842189,0.0001541,53.2202,14.4082,103.5642,256.5522,0.00011503,1.543e-05,0.0,0 STARLINK-4734,1 53790U 22111T   24055.58704987  .00001543  00000-0  11503-3 0  9991,2 53790  53.2202  14.4082 0001541 103.5642 256.5522 15.08842189 81362,6917.874,95.437,540.805,538.673,0.0
53790.0,STARLINK-4734,PAYLOAD,2024-02-25 05:59:12,15.08844302,0.0001609,53.22,11.4361,105.9243,254.1926,7.5024e-05,9.06e-06,0.0,0 STARLINK-4734,1 53790U 22111T   24056.24944936  .00000906  00000-0  75024-4 0  9996,2 53790  53.2200  11.4361 0001609 105.9243 254.1926 15.08844302 80657,6917.867,95.437,540.845,538.619,0.0
53790.0,STARLINK-4734,PAYLOAD,2024-02-26 05:49:58,15.08855022,0.0001402,53.2192,6.9698,120.8942,239.2188,0.00020795,3.024e-05,0.0,0 STARLINK-4734,1 53790U 22111T   24057.24304089  .00003024  00000-0  20795-3 0  9994,2 53790  53.2192   6.9698 0001402 120.8942 239.2188 15.08855022 81614,6917.834,95.437,540.669,538.73,0.0
53790.0,STARLINK-4734,PAYLOAD,2024-02-27 04:05:23,15.08837991,0.0001634,53.2198,2.8108,77.1846,282.9329,3.0905e-05,2.04e-06,0.0,0 STARLINK-4734,1 53790U 22111T   24058.17041583  .00000204  00000-0  30905-4 0  9996,2 53790  53.2198   2.8108 0001634  77.1846 282.9329 15.08837991 80947,6917.887,95.438,540.882,538.621,0.0
53790.0,STARLINK-4734,PAYLOAD,2024-02-27 13:37:42,15.08841096,0.0001423,53.2191,1.0242,101.642,258.4731,8.6349e-05,1.087e-05,0.0,0 STARLINK-4734,1 53790U 22111T   24058.56785297  .00001087  00000-0  86349-4 0  9999,2 53790  53.2191   1.0242 0001423 101.6420 258.4731 15.08841096 81810,6917.877,95.437,540.726,538.758,0.0
53790.0,STARLINK-4734,PAYLOAD,2024-02-27 19:59:15,15.08841977,0.0001469,53.2186,359.835,96.9886,263.1273,6.8257e-05,7.99e-06,0.0,0 STARLINK-4734,1 53790U 22111T   24058.83281333  .00000799  00000-0  68257-4 0  9998,2 53790  53.2186 359.8350 0001469  96.9886 263.1273 15.08841977 81856,6917.874,95.437,540.756,538.723,0.0
53790.0,STARLINK-4734,PAYLOAD,2024-02-28 13:28:29,15.08836697,0.0001385,53.2201,356.5647,84.0069,276.1081,5.8461e-05,6.43e-06,0.0,0 STARLINK-4734,1 53790U 22111T   24059.56145376  .00000643  00000-0  58461-4 0  9999,2 53790  53.2201 356.5647 0001385  84.0069 276.1081 15.08836697 81152,6917.89,95.438,540.714,538.797,0.0
